STARLINK-1031           
1 44736U 19074Z   22188.16126582  .00001878  00000+0  14491-3 0  9992
2 44736  53.0546 108.9838 0001862  70.6953 289.4237 15.06402834146271
STARLINK-1032           
1 44737U 19074AA  22188.17232508  .00000364  00000+0  43339-4 0  9993
2 44737  53.0543 108.9317 0001994  65.2008 294.9188 15.06393865146277
STARLINK-1033           
1 44738U 19074AB  22188.29028379 -.00000971  00000+0 -46326-4 0  9991
2 44738  53.0552 108.4034 0001986  73.4332 286.6875 15.06384898146289
STARLINK-1052           
1 44739U 19074AC  22188.47508798  .00013149  00000+0  70681-3 0  9999
2 44739  52.9953  95.8150 0003112  71.5673 288.5657 15.15201945146438
STARLINK-1035           
1 44740U 19074AD  22188.16866585  .00000898  00000+0  79237-4 0  9992
2 44740  53.0561 108.9522 0001856  60.7228 299.3946 15.06383623146272
STARLINK-1036           
1 44741U 19074AE  22188.17970233  .00002433  00000+0  18220-3 0  9991
2 44741  53.0556 108.8892 0001642  73.9033 286.2137 15.06399168146277
STARLINK-1038           
1 44743U 19074AG  22188.22946300 -.00000945  00000+0 -44556-4 0  9997
2 44743  53.0555 128.6749 0001669  64.0184 296.0977 15.06383650146096
STARLINK-1039           
1 44744U 19074AH  22188.30685241 -.00000127  00000+0  10363-4 0  9991
2 44744  53.0554 128.3227 0001672  75.7146 284.4029 15.06400928146014
STARLINK-1041           
1 44746U 19074AK  22188.22577416 -.00000041  00000+0  16167-4 0  9991
2 44746  53.0545 128.6940 0002212  62.7491 297.3723 15.06396001146000
STARLINK-1042           
1 44747U 19074AL  22188.32161348  .00000078  00000+0  24154-4 0  9990
2 44747  53.0563 128.2699 0001642  70.3791 289.7375 15.06390979146020
STARLINK-1043           
1 44748U 19074AM  22188.21839646  .00001841  00000+0  14245-3 0  9990
2 44748  53.0554 128.7162 0001713  66.5132 293.6036 15.06400256146002
STARLINK-1046           
1 44751U 19074AQ  22188.10045972 -.00000010  00000+0  18211-4 0  9999
2 44751  53.0553 129.2547 0001907  67.7728 292.3463 15.06388758145985
STARLINK-1047           
1 44752U 19074AR  22188.18707490  .00002190  00000+0  16592-3 0  9997
2 44752  53.0552 108.8663 0001966  66.4810 293.6385 15.06397531146279
STARLINK-1048           
1 44753U 19074AS  22188.45799706 -.00001004  00000+0 -48552-4 0  9996
2 44753  53.0566  87.6480 0001579  78.8037 281.3130 15.06393154146598
STARLINK-1049           
1 44754U 19074AT  22188.46166917  .00002607  00000+0  19384-3 0  9998
2 44754  53.0545  87.6353 0001880  69.1618 290.9572 15.06405573146593
STARLINK-1034           
1 44757U 19074AW  22188.19813821 -.00000180  00000+0  68350-5 0  9998
2 44757  53.0556 108.8146 0002098  68.8020 291.3193 15.06391580146270
STARLINK-1053           
1 44758U 19074AX  22188.21471927  .00002260  00000+0  17057-3 0  9995
2 44758  53.0543 128.8222 0001712  64.4098 295.7068 15.06402049146006
STARLINK-1054           
1 44759U 19074AY  22188.26263744  .00001125  00000+0  94417-4 0  9992
2 44759  53.0551 128.5135 0001692  77.7051 282.4127 15.06393010143653
STARLINK-1055           
1 44760U 19074AZ  22188.31424089  .00000238  00000+0  34939-4 0  9998
2 44760  53.0562 128.2959 0002506  68.7859 291.3397 15.06393016146027
STARLINK-1056           
1 44761U 19074BA  22188.32529607  .00001737  00000+0  13551-3 0  9993
2 44761  53.0553 128.2425 0001888  63.5044 296.6138 15.06391166146022
STARLINK-1057           
1 44762U 19074BB  22188.26079093 -.00000944  00000+0 -44452-4 0  9992
2 44762  53.0571 108.5319 0002063  72.8109 287.3106 15.06391490146287
STARLINK-1058           
1 44763U 19074BC  22188.34645402  .00000382  00000+0  44550-4 0  9998
2 44763  53.0533 128.1322 0001835  64.3412 295.7767 15.06403637146022
STARLINK-1059           
1 44764U 19074BD  22188.18594307  .00008687  00000+0  59478-3 0  9998
2 44764  53.0545 108.8264 0002709  84.8650 275.2648 15.06813283146278
STARLINK-1060           
1 44765U 19074BE  22188.47456693  .00000777  00000+0  71072-4 0  9993
2 44765  53.0555 107.5632 0001721  68.3296 291.7876 15.06400494146318
STARLINK-1061           
1 44766U 19074BF  22188.20734251  .00003947  00000+0  28367-3 0  9994
2 44766  53.0548 128.7792 0001681  79.2866 280.8312 15.06407617146006
STARLINK-1062           
1 44767U 19074BG  22188.19903058  .00000251  00000+0  35792-4 0  9992
2 44767  53.0568 128.7973 0002276  59.6529 300.4684 15.06392484146005
STARLINK-1063           
1 44768U 19074BH  22188.22208593  .00000323  00000+0  40606-4 0  9999
2 44768  53.0544 128.6888 0001879  60.9322 299.1855 15.06396751146014
STARLINK-1067           
1 44771U 19074BL  22188.34373131 -.00001722  00000+0 -96704-4 0  9993
2 44771  53.0550 128.1514 0002589  63.3112 296.8142 15.06390552146026
STARLINK-1068           
1 44772U 19074BM  22188.20180693  .00000767  00000+0  70422-4 0  9993
2 44772  53.0541 108.7955 0001895  69.6598 290.4595 15.06397443146271
JILIN-01 GAOFEN 2A      
1 44777U 19075A   22188.64731082  .00002423  00000+0  15567-3 0  9990
2 44777  97.4122 245.3914 0005712 184.7817 327.5728 15.09341469145955
NINGXIA-1 1             
1 44779U 19076A   22188.45503934 -.00000117  00000+0  80826-5 0  9996
2 44779  45.0061 136.3383 0009548 188.2320 171.8357 14.01705517135693
NINGXIA-1 2             
1 44780U 19076B   22188.44169097 -.00000100  00000+0  19160-4 0  9999
2 44780  45.0085 136.4637 0007221 185.0467 175.0294 14.01727583135690
NINGXIA-1 3             
1 44781U 19076C   22188.35777713 -.00000112  00000+0  11283-4 0  9991
2 44781  45.0004 136.0449 0008391 169.6325 190.4683 14.01714696135682
NINGXIA-1 4             
1 44782U 19076D   22188.41291485 -.00000134  00000+0 -25864-5 0  9992
2 44782  45.0082 136.2655 0011711 153.9389 206.2036 14.01713579135694
NINGXIA-1 5             
1 44783U 19076E   22188.47037541 -.00000119  00000+0  72248-5 0  9990
2 44783  45.0061 135.6646 0010244 175.0160 185.0775 14.01686253135701
KL-ALPHA A              
1 44785U 19077A   22188.58192024  .00000027  00000+0  20927-4 0  9996
2 44785  88.9230  21.6444 0011246 358.6651   1.4492 13.55815183130519
KL-ALPHA B              
1 44786U 19077B   22188.55484979  .00000026  00000+0  19331-4 0  9993
2 44786  88.9082  21.3656 0028022  31.1691 329.1127 13.55790307129966
BEIDOU-3 M21            
1 44793U 19078A   22188.18313377 -.00000069  00000+0  10000-3 0  9995
2 44793  54.9653 349.9381 0006483  23.1386 161.7209  1.86232265 17810
BEIDOU-3 M22            
1 44794U 19078B   22188.56996029 -.00000070  00000+0  00000+0 0  9996
2 44794  54.9394 349.9157 0004433  23.6012 332.3124  1.86232790 17813
COSMOS 2542             
1 44797U 19079A   22188.62129484  .00039908  24506-5  42919-3 0  9993
2 44797  97.6826 257.4858 0280987 356.7875   3.1548 15.28245058142812
TIBA-1                  
1 44800U 19080A   22188.53114571  .00000169  00000+0  00000+0 0  9996
2 44800   0.0504  16.5414 0002287 101.2960  34.3313  1.00271658  9619
INMARSAT GX5            
1 44801U 19080B   22188.27549403  .00000089  00000+0  00000+0 0  9995
2 44801   0.0510 321.9194 0001820 141.0684 292.4132  1.00274583  9652
CARTOSAT-3              
1 44804U 19081A   22188.46953948  .00001837  00000+0  90192-4 0  9991
2 44804  97.3951 249.6410 0014295 142.0954 342.6752 15.19235718144671
MESHBED                 
1 44806U 19081C   22188.18422581  .00011596  00000+0  40174-3 0  9993
2 44806  97.4005 253.3123 0012877 142.4128 217.8015 15.29920769144929
FLOCK 4P-10             
1 44808U 19081E   22188.13054955  .00004724  00000+0  17532-3 0  9993
2 44808  97.3998 252.9312 0012696 144.4710 215.7378 15.27997467144908
FLOCK 4P-11             
1 44809U 19081F   22188.16354493  .00007173  00000+0  26452-3 0  9999
2 44809  97.3995 253.0139 0012577 145.4962 214.7096 15.28026168144912
FLOCK 4P-4              
1 44811U 19081H   22188.43147465  .00010336  00000+0  36412-3 0  9993
2 44811  97.4053 253.9746 0011931 134.4492 225.7727 15.29419210144977
FLOCK 4P-3              
1 44812U 19081J   22188.40919179  .00011653  00000+0  40438-3 0  9996
2 44812  97.4043 253.9865 0011660 135.0502 225.1684 15.29880759144973
FLOCK 4P-1              
1 44814U 19081L   22188.48685372  .00009706  00000+0  36654-3 0  9992
2 44814  97.4022 253.3513 0011741 138.2563 221.9574 15.27151561144958
FLOCK 4P-7              
1 44816U 19081N   22188.14741856  .00008334  00000+0  30705-3 0  9994
2 44816  97.4003 253.1483 0011123 137.1936 223.0172 15.28022450144917
FLOCK 4P-5              
1 44818U 19081Q   22188.18055763  .00011284  00000+0  41514-3 0  9993
2 44818  97.4011 253.2747 0010687 137.5452 222.6616 15.27984295144925
GAOFEN 12-1             
1 44819U 19082A   22188.47832424 -.00000192  00000+0 -18507-4 0  9999
2 44819  97.8593 208.4513 0001747  83.1031 277.0302 14.80254564140901
ALE-2                   
1 44824U 19084A   22188.06917090  .00017049  00000+0  20285-3 0  9997
2 44824  96.8835  42.2190 0009904  29.2998 330.8814 15.61125694146752
COSMOS 2543             
1 44835U 19079D   22188.63026107  .00004216  00000+0  14319-3 0  9999
2 44835  97.7649 260.0007 0088709  10.0159 350.2820 15.27355047140836
JILIN-01 GAOFEN 2B      
1 44836U 19086A   22188.47844231  .00005597  00000+0  35395-3 0  9996
2 44836  97.4107 245.8533 0007556 313.0636 171.5228 15.09383727142323
2019-087A               
1 44838U 19087A   22188.48462493  .00007816  00000+0  28231-3 0  9993
2 44838  97.4821 348.9243 0011181 183.2697 265.8398 15.28702869143536
2019-087B               
1 44839U 19087B   22188.47498402  .00005177  00000+0  20367-3 0  9992
2 44839  97.4795 347.7611 0011453 188.6899 249.0447 15.26036889143481
2019-087C               
1 44840U 19087C   22188.48434289  .00005074  00000+0  19617-3 0  9990
2 44840  97.4873 349.0977 0010659 188.3059 248.1889 15.26636355143510
2019-087D               
1 44841U 19087D   22188.50058672  .00031771  00000+0  76354-3 0  9996
2 44841  97.4591 351.5175 0008081 163.5150 269.1855 15.41238908143806
